CCSDS_OMM_VERS = 2.0
CREATION_DATE  = 
ORIGINATOR     = 

OBJECT_NAME    = STARLINK-36840
OBJECT_ID      = 2026-034A
CENTER_NAME    = EARTH
REF_FRAME      = TEME
TIME_SYSTEM    = UTC
MEAN_ELEMENT_THEORY = SGP/SGP4

EPOCH          = 2026-03-10T19:21:08.980416
MEAN_MOTION    = 15.80999388
ECCENTRICITY   = .0000718
INCLINATION    = 53.1579
RA_OF_ASC_NODE = 205.7612
ARG_OF_PERICENTER = 76.4465
MEAN_ANOMALY   = 283.6638

EPHEMERIS_TYPE = 0
CLASSIFICATION_TYPE = U
NORAD_CAT_ID   = 67850
ELEMENT_SET_NO = 999
REV_AT_EPOCH   = 411
BSTAR          = .15722E-2
MEAN_MOTION_DOT = .323392E-2
MEAN_MOTION_DDOT = 0

CCSDS_OMM_VERS = 2.0
CREATION_DATE  = 
ORIGINATOR     = 

OBJECT_NAME    = STARLINK-36348
OBJECT_ID      = 2026-034B
CENTER_NAME    = EARTH
REF_FRAME      = TEME
TIME_SYSTEM    = UTC
MEAN_ELEMENT_THEORY = SGP/SGP4

EPOCH          = 2026-03-10T17:49:02.221248
MEAN_MOTION    = 15.80969642
ECCENTRICITY   = .0001059
INCLINATION    = 53.1579
RA_OF_ASC_NODE = 206.0734
ARG_OF_PERICENTER = 60.3714
MEAN_ANOMALY   = 299.7415

EPHEMERIS_TYPE = 0
CLASSIFICATION_TYPE = U
NORAD_CAT_ID   = 67851
ELEMENT_SET_NO = 999
REV_AT_EPOCH   = 410
BSTAR          = .13208E-2
MEAN_MOTION_DOT = .269474E-2
MEAN_MOTION_DDOT = 0

CCSDS_OMM_VERS = 2.0
CREATION_DATE  = 
ORIGINATOR     = 

OBJECT_NAME    = STARLINK-36276
OBJECT_ID      = 2026-034C
CENTER_NAME    = EARTH
REF_FRAME      = TEME
TIME_SYSTEM    = UTC
MEAN_ELEMENT_THEORY = SGP/SGP4

EPOCH          = 2026-03-10T19:18:59.618016
MEAN_MOTION    = 15.80923963
ECCENTRICITY   = .0000922
INCLINATION    = 53.1582
RA_OF_ASC_NODE = 205.7513
ARG_OF_PERICENTER = 68.9341
MEAN_ANOMALY   = 291.1780

EPHEMERIS_TYPE = 0
CLASSIFICATION_TYPE = U
NORAD_CAT_ID   = 67852
ELEMENT_SET_NO = 999
REV_AT_EPOCH   = 411
BSTAR          = .11488E-2
MEAN_MOTION_DOT = .23281E-2
MEAN_MOTION_DDOT = 0

CCSDS_OMM_VERS = 2.0
CREATION_DATE  = 
ORIGINATOR     = 

OBJECT_NAME    = STARLINK-36785
OBJECT_ID      = 2026-034D
CENTER_NAME    = EARTH
REF_FRAME      = TEME
TIME_SYSTEM    = UTC
MEAN_ELEMENT_THEORY = SGP/SGP4

EPOCH          = 2026-03-10T20:48:56.775456
MEAN_MOTION    = 15.80982251
ECCENTRICITY   = .0001176
INCLINATION    = 53.1583
RA_OF_ASC_NODE = 205.4293
ARG_OF_PERICENTER = 54.6782
MEAN_ANOMALY   = 305.4350

EPHEMERIS_TYPE = 0
CLASSIFICATION_TYPE = U
NORAD_CAT_ID   = 67853
ELEMENT_SET_NO = 999
REV_AT_EPOCH   = 412
BSTAR          = .12987E-2
MEAN_MOTION_DOT = .264968E-2
MEAN_MOTION_DDOT = 0

CCSDS_OMM_VERS = 2.0
CREATION_DATE  = 
ORIGINATOR     = 

OBJECT_NAME    = STARLINK-36608
OBJECT_ID      = 2026-034E
CENTER_NAME    = EARTH
REF_FRAME      = TEME
TIME_SYSTEM    = UTC
MEAN_ELEMENT_THEORY = SGP/SGP4

EPOCH          = 2026-03-10T20:47:51.902016
MEAN_MOTION    = 15.80980779
ECCENTRICITY   = .0000782
INCLINATION    = 53.1583
RA_OF_ASC_NODE = 205.4240
ARG_OF_PERICENTER = 58.5585
MEAN_ANOMALY   = 301.5514

EPHEMERIS_TYPE = 0
CLASSIFICATION_TYPE = U
NORAD_CAT_ID   = 67854
ELEMENT_SET_NO = 999
REV_AT_EPOCH   = 411
BSTAR          = .11668E-2
MEAN_MOTION_DOT = .23721E-2
MEAN_MOTION_DDOT = 0

CCSDS_OMM_VERS = 2.0
CREATION_DATE  = 
ORIGINATOR     = 

OBJECT_NAME    = STARLINK-36838
OBJECT_ID      = 2026-034F
CENTER_NAME    = EARTH
REF_FRAME      = TEME
TIME_SYSTEM    = UTC
MEAN_ELEMENT_THEORY = SGP/SGP4

EPOCH          = 2026-03-10T20:46:47.140896
MEAN_MOTION    = 15.80981048
ECCENTRICITY   = .0001343
INCLINATION    = 53.1582
RA_OF_ASC_NODE = 205.4176
ARG_OF_PERICENTER = 54.1707
MEAN_ANOMALY   = 305.9441

EPHEMERIS_TYPE = 0
CLASSIFICATION_TYPE = U
NORAD_CAT_ID   = 67855
ELEMENT_SET_NO = 999
REV_AT_EPOCH   = 412
BSTAR          = .14263E-2
MEAN_MOTION_DOT = .291984E-2
MEAN_MOTION_DDOT = 0

CCSDS_OMM_VERS = 2.0
CREATION_DATE  = 
ORIGINATOR     = 

OBJECT_NAME    = STARLINK-36843
OBJECT_ID      = 2026-034G
CENTER_NAME    = EARTH
REF_FRAME      = TEME
TIME_SYSTEM    = UTC
MEAN_ELEMENT_THEORY = SGP/SGP4

EPOCH          = 2026-03-10T20:44:37.361184
MEAN_MOTION    = 15.81019625
ECCENTRICITY   = .0000858
INCLINATION    = 53.1580
RA_OF_ASC_NODE = 205.4083
ARG_OF_PERICENTER = 65.3147
MEAN_ANOMALY   = 294.7965

EPHEMERIS_TYPE = 0
CLASSIFICATION_TYPE = U
NORAD_CAT_ID   = 67856
ELEMENT_SET_NO = 999
REV_AT_EPOCH   = 412
BSTAR          = .17788E-2
MEAN_MOTION_DOT = .368255E-2
MEAN_MOTION_DDOT = 0

CCSDS_OMM_VERS = 2.0
CREATION_DATE  = 
ORIGINATOR     = 

OBJECT_NAME    = STARLINK-36828
OBJECT_ID      = 2026-034H
CENTER_NAME    = EARTH
REF_FRAME      = TEME
TIME_SYSTEM    = UTC
MEAN_ELEMENT_THEORY = SGP/SGP4

EPOCH          = 2026-03-10T20:45:42.285600
MEAN_MOTION    = 15.80985135
ECCENTRICITY   = .0000748
INCLINATION    = 53.1579
RA_OF_ASC_NODE = 205.4139
ARG_OF_PERICENTER = 62.4326
MEAN_ANOMALY   = 297.6773

EPHEMERIS_TYPE = 0
CLASSIFICATION_TYPE = U
NORAD_CAT_ID   = 67857
ELEMENT_SET_NO = 999
REV_AT_EPOCH   = 412
BSTAR          = .13042E-2
MEAN_MOTION_DOT = .266178E-2
MEAN_MOTION_DDOT = 0

CCSDS_OMM_VERS = 2.0
CREATION_DATE  = 
ORIGINATOR     = 

OBJECT_NAME    = STARLINK-36837
OBJECT_ID      = 2026-034J
CENTER_NAME    = EARTH
REF_FRAME      = TEME
TIME_SYSTEM    = UTC
MEAN_ELEMENT_THEORY = SGP/SGP4

EPOCH          = 2026-03-10T17:41:28.503744
MEAN_MOTION    = 15.80978469
ECCENTRICITY   = .0001018
INCLINATION    = 53.1584
RA_OF_ASC_NODE = 206.0369
ARG_OF_PERICENTER = 77.1895
MEAN_ANOMALY   = 282.9241

EPHEMERIS_TYPE = 0
CLASSIFICATION_TYPE = U
NORAD_CAT_ID   = 67858
ELEMENT_SET_NO = 999
REV_AT_EPOCH   = 410
BSTAR          = .14208E-2
MEAN_MOTION_DOT = .290792E-2
MEAN_MOTION_DDOT = 0

CCSDS_OMM_VERS = 2.0
CREATION_DATE  = 
ORIGINATOR     = 

OBJECT_NAME    = STARLINK-36393
OBJECT_ID      = 2026-034K
CENTER_NAME    = EARTH
REF_FRAME      = TEME
TIME_SYSTEM    = UTC
MEAN_ELEMENT_THEORY = SGP/SGP4

EPOCH          = 2026-03-10T17:40:23.617344
MEAN_MOTION    = 15.80941810
ECCENTRICITY   = .0000673
INCLINATION    = 53.1584
RA_OF_ASC_NODE = 206.0327
ARG_OF_PERICENTER = 89.9444
MEAN_ANOMALY   = 270.1656

EPHEMERIS_TYPE = 0
CLASSIFICATION_TYPE = U
NORAD_CAT_ID   = 67859
ELEMENT_SET_NO = 999
REV_AT_EPOCH   = 410
BSTAR          = .88349E-3
MEAN_MOTION_DOT = .177874E-2
MEAN_MOTION_DDOT = 0

CCSDS_OMM_VERS = 2.0
CREATION_DATE  = 
ORIGINATOR     = 

OBJECT_NAME    = STARLINK-35873
OBJECT_ID      = 2026-034L
CENTER_NAME    = EARTH
REF_FRAME      = TEME
TIME_SYSTEM    = UTC
MEAN_ELEMENT_THEORY = SGP/SGP4

EPOCH          = 2026-03-10T19:10:21.018432
MEAN_MOTION    = 15.80947724
ECCENTRICITY   = .0001046
INCLINATION    = 53.1585
RA_OF_ASC_NODE = 205.7103
ARG_OF_PERICENTER = 64.1515
MEAN_ANOMALY   = 295.9615

EPHEMERIS_TYPE = 0
CLASSIFICATION_TYPE = U
NORAD_CAT_ID   = 67860
ELEMENT_SET_NO = 999
REV_AT_EPOCH   = 414
BSTAR          = .99951E-3
MEAN_MOTION_DOT = .201948E-2
MEAN_MOTION_DDOT = 0

CCSDS_OMM_VERS = 2.0
CREATION_DATE  = 
ORIGINATOR     = 

OBJECT_NAME    = STARLINK-36325
OBJECT_ID      = 2026-034M
CENTER_NAME    = EARTH
REF_FRAME      = TEME
TIME_SYSTEM    = UTC
MEAN_ELEMENT_THEORY = SGP/SGP4

EPOCH          = 2026-03-10T19:09:16.278048
MEAN_MOTION    = 15.80945048
ECCENTRICITY   = .0001173
INCLINATION    = 53.1584
RA_OF_ASC_NODE = 205.7056
ARG_OF_PERICENTER = 57.8086
MEAN_ANOMALY   = 302.3051

EPHEMERIS_TYPE = 0
CLASSIFICATION_TYPE = U
NORAD_CAT_ID   = 67861
ELEMENT_SET_NO = 999
REV_AT_EPOCH   = 411
BSTAR          = .11037E-2
MEAN_MOTION_DOT = .223607E-2
MEAN_MOTION_DDOT = 0

